0 COSMOS 1125
1 11510U 79078A   13282.47609796  .00000086  00000-0  41240-4 0  3323
2 11510 074.0376 004.6847 0013877 274.6072 175.9313 14.32741029781941
0 COSMOS 1125
1 11510U 79078A   13283.81047416  .00000094  00000-0  43985-4 0  3335
2 11510 074.0375 002.2483 0013891 272.1924 218.1209 14.32741403782137
0 COSMOS 1125
1 11510U 79078A   13286.52771211  .00000116  00000-0  52233-4 0  3356
2 11510 074.0371 357.2865 0013842 266.9344 192.9197 14.32741637782520
0 COSMOS 1125
1 11510U 79078A   13287.79183848  .00000142  00000-0  61564-4 0  3366
2 11510 074.0368 354.9782 0013868 264.6381 232.8009 14.32742003782706
0 COSMOS 1125
1 11510U 79078A   13289.16751395  .00000115  00000-0  51782-4 0  3379
2 11510 074.0365 352.4663 0013874 262.1112 128.0385 14.32742942782903
0 COSMOS 1125
1 11510U 79078A   13290.35797231  .00000106  00000-0  48425-4 0  3382
2 11510 074.0363 350.2924 0013875 259.9033 148.0198 14.32743375783078
0 COSMOS 1125
1 11510U 79078A   13292.17543862  .00000123  00000-0  54724-4 0  3392
2 11510 074.0361 346.9734 0013824 256.3957 162.0359 14.32743853783332
0 COSMOS 1125
1 11510U 79078A   13293.43994793  .00000126  00000-0  55950-4 0  3402
2 11510 074.0360 344.6641 0013773 253.8801 204.1215 14.32744385783516
0 COSMOS 1125
1 11510U 79078A   13294.48796225  .00000101  00000-0  46587-4 0  3418
2 11510 074.0359 342.7502 0013756 251.8655 209.4997 14.32744820783660
0 COSMOS 1125
1 11510U 79078A   13295.68422113  .00000123  00000-0  54691-4 0  3423
2 11510 074.0358 340.5655 0013732 249.5767 259.4769 14.32744908783834
